SCD 1                   
1 22490U 93009B   26165.46602380  .00000369  00000+0  49991-4 0  9990
2 22490  24.9681 224.3801 0042145 109.0354 274.2287 14.46118024760722
TECHSAT 1B (GO-32)      
1 25397U 98043D   26165.46539858  .00000045  00000+0  39452-4 0  9993
2 25397  99.0066 158.1553 0000911 168.6886 191.4312 14.24427950450941
SCD 2                   
1 25504U 98060A   26165.49224641  .00000365  00000+0  50974-4 0  9993
2 25504  24.9950  88.7767 0016977  94.8048  66.0761 14.45524918459932
DLR-TUBSAT              
1 25757U 99029B   26165.46893170  .00000069  00000+0  28875-4 0  9991
2 25757  98.6695 160.8836 0014223   3.5146 356.6146 14.52426281432852
TERRA                   
1 25994U 99068A   26165.49902449  .00000343  00000+0  78741-4 0  9992
2 25994  97.9457 215.1518 0001370 199.3330 302.4932 14.61101134409215
MAROC-TUBSAT            
1 27004U 01056D   26165.44503839 -.00000026  00000+0  23482-4 0  9992
2 27004  99.8080 342.2529 0020240 148.1176 266.0725 13.70262390225811
AQUA                    
1 27424U 02022A   26165.53189381  .00000688  00000+0  14665-3 0  9999
2 27424  98.4276 134.7616 0001206  53.6987  58.6592 14.62154508282881
SHIYAN-1 (SY-1)         
1 28220U 04012A   26165.11722427  .00013905  00000+0  42897-3 0  9997
2 28220  97.8697 242.9858 0005869  43.2331 316.9370 15.33691010210623
AURA                    
1 28376U 04026A   26165.45265873  .00000679  00000+0  14720-3 0  9996
2 28376  98.3417 121.8833 0001238  73.7135 286.4202 14.61325390165815
IRS-P5 (CARTOSAT-1)     
1 28649U 05017A   26165.32684227  .00001228  00000+0  12941-3 0  9998
2 28649  97.5308 188.5210 0002670  83.3242 276.8280 14.91042492143394
SINAH 1                 
1 28893U 05043D   26165.52560610  .00000273  00000+0  61244-4 0  9999
2 28893  98.2856 299.8320 0013162 285.9583  74.0168 14.64156060100130
RESURS-DK 1             
1 29228U 06021A   26165.52343166  .00002421  00000+0  14203-3 0  9993
2 29228  69.9339 346.4480 0006829 293.8044  66.2406 15.13208440102171
ARIRANG-2 (KOMPSAT-2)   
1 29268U 06031A   26165.49621936  .00000355  00000+0  75121-4 0  9999
2 29268  97.8302 350.0732 0015938  82.3945   1.5910 14.64658834 61085
LAPAN-TUBSAT            
1 29709U 07001A   26165.49348752  .00001216  00000+0  14576-3 0  9992
2 29709  98.1337 164.6564 0011663 187.9942 172.1089 14.85950501 50752
HAIYANG-1B              
1 31113U 07010A   26165.48783853  .00000071  00000+0  42798-4 0  9994
2 31113  98.3494 147.4377 0012841 204.6717 155.3854 14.31026272   250
COSMO-SKYMED 1          
1 31598U 07023A   26165.52834876  .00002344  00000+0  20845-3 0  9995
2 31598  97.8840 357.3620 0001103  97.6236 262.5110 14.97087772 29390
TERRASAR-X              
1 31698U 07026A   26164.30549450  .00000550  00000+0  29393-4 0  9990
2 31698  97.4448 172.0669 0001630  86.5072 273.6349 15.19146801 52630
WORLDVIEW-1 (WV-1)      
1 32060U 07041A   26165.46920777  .00005877  00000+0  24378-3 0  9998
2 32060  97.3875 285.2517 0002520  29.2586 330.8793 15.24240511 42467
YAOGAN-3                
1 32289U 07055A   26165.50965546  .00003483  00000+0  35991-3 0  9998
2 32289  97.8156 195.4141 0002027  86.8191 273.3259 14.90776974  5472
COSMO-SKYMED 2          
1 32376U 07059A   26165.52813435  .00000351  00000+0  50711-4 0  9999
2 32376  97.8885 349.1647 0001382  86.6538 273.4833 14.82153076  1617
RADARSAT-2              
1 32382U 07061A   26165.51885999  .00000014  00000+0  22477-4 0  9996
2 32382  98.5773 172.4892 0001309  82.5847 277.5484 14.29981243965571
CARTOSAT-2A             
1 32783U 08021A   26165.47606138  .00000670  00000+0  96768-4 0  9991
2 32783  97.7640 214.2772 0013060 116.6704 243.5847 14.79234985978401
HUANJING 1A (HJ-1A)     
1 33320U 08041A   26165.53664101  .00001583  00000+0  19580-3 0  9992
2 33320  97.6675 151.4773 0019743 142.8272 217.4314 14.83983358958018
HUANJING 1B (HJ-1B)     
1 33321U 08041B   26165.50451259  .00000505  00000+0  67302-4 0  9997
2 33321  97.6510 154.6261 0035728 189.9083 170.1431 14.83311625958014
GEOEYE 1                
1 33331U 08042A   26165.48770275  .00000408  00000+0  85581-4 0  9999
2 33331  98.1236 239.4531 0005484  76.1719 284.0094 14.64723453949753
THEOS                   
1 33396U 08049A   26165.50290740  .00000429  00000+0  22109-3 0  9993
2 33396  98.5578 222.8737 0001237  79.8479 280.2837 14.20133782917587
COSMO-SKYMED 3          
1 33412U 08054A   26165.48712337  .00004226  00000+0  28648-3 0  9999
2 33412  97.8287  24.0130 0014367 276.7035  83.2557 15.06937815956530
YAOGAN-4                
1 33446U 08061A   26165.40111431  .00000892  00000+0  11565-3 0  9999
2 33446  97.9308  98.9319 0015749  80.6521 279.6472 14.83195215945256
GOSAT (IBUKI)           
1 33492U 09002A   26165.54743529  .00001007  00000+0  18613-3 0  9990
2 33492  98.0891 276.6616 0001517  86.4252 273.7126 14.67540145931078
DEIMOS-1                
1 35681U 09041A   26165.47328958  .00000745  00000+0  11721-3 0  9993
2 35681  97.7392 322.8187 0001456 133.2859 226.8472 14.75235804906487
DUBAISAT-1              
1 35682U 09041B   26165.37578683  .00000644  00000+0  10295-3 0  9998
2 35682  98.0048 298.6644 0011713  81.7450 278.5087 14.75118943904689
